{
  "norad_id": 62948,
  "name": "STARLINK-32728",
  "history": [
    {
      "epoch": "2026-03-28T20:18:43.354368Z",
      "apogee_km": 476.08434046984803,
      "perigee_km": 474.3080935666603,
      "latitude_deg": -4.564239633980794e-06,
      "longitude_deg": 10.186431534357625,
      "height_km": 475.91373788700315,
      "semi_major_axis_km": 6853.333217018254,
      "eccentricity": 0.00012959,
      "inclination_deg": 53.1582,
      "raan_deg": 141.128,
      "arg_perigee_deg": 78.2823,
      "mean_anomaly_deg": 281.8323,
      "mean_motion_rev_day": 15.30206314
    }
  ]
}